{"type": "FeatureCollection", "features": [ {"type": "Feature", "properties": {"norad_id": 39574, "name": "GPM-CORE", "group": "resource", "lat": 58.59309604409166, "lon": -105.94544564671577, "alt_km": 432.748027093633, "timestamp": "2025-12-15T07:02:37.271471+00:00", "meta": {"OBJECT_NAME": "GPM-CORE", "OBJECT_ID": "2014-009C", "EPOCH": "2025-12-14T21:24:56.094624", "MEAN_MOTION": 15.44502745, "ECCENTRICITY": 0.00097002, "INCLINATION": 64.9734, "RA_OF_ASC_NODE": 205.4726, "ARG_OF_PERICENTER": 246.0366, "MEAN_ANOMALY": 113.9759, "EPHEMERIS_TYPE": 0, "CLASSIFICATION_TYPE": "U", "NORAD_CAT_ID": 39574, "ELEMENT_SET_NO": 999, "REV_AT_EPOCH": 66934, "BSTAR": 0.00013113885, "MEAN_MOTION_DOT": 5.869e-05, "MEAN_MOTION_DDOT": 0}, "tle": {"line1": "1 39574U 14009C   25348.89231591  .00005869  00000+0  13114-3 0  9992", "line2": "2 39574  64.9734 205.4726 0009700 246.0366 113.9759 15.44502745669342"}}, "geometry": {"type": "Point", "coordinates": [-105.94544564671577, 58.59309604409166]}}, {"type": "Feature", "properties": {"norad_id": 39634, "name": "SENTINEL-1A", "group": "resource", "lat": -30.908992814543108, "lon": 169.5567648177074, "alt_km": 702.2913203148728, "timestamp": "2025-12-15T07:02:37.271482+00:00", "meta": {"OBJECT_NAME": "SENTINEL-1A", "OBJECT_ID": "2014-016A", "EPOCH": "2025-12-14T23:29:46.413888", "MEAN_MOTION": 14.59200486, "ECCENTRICITY": 0.00012469, "INCLINATION": 98.1808, "RA_OF_ASC_NODE": 354.1877, "ARG_OF_PERICENTER": 85.4109, "MEAN_ANOMALY": 274.7233, "EPHEMERIS_TYPE": 0, "CLASSIFICATION_TYPE": "U", "NORAD_CAT_ID": 39634, "ELEMENT_SET_NO": 999, "REV_AT_EPOCH": 62315, "BSTAR": 0.00011252245, "MEAN_MOTION_DOT": 4.85e-06, "MEAN_MOTION_DDOT": 0}, "tle": {"line1": "1 39634U 14016A   25348.97900942  .00000485  00000+0  11252-3 0  9999", "line2": "2 39634  98.1808 354.1877 0001246  85.4109 274.7233 14.59200486623150"}}, "geometry": {"type": "Point", "coordinates": [169.5567648177074, -30.908992814543108]}}, {"type": "Feature", "properties": {"norad_id": 39731, "name": "KAZEOSAT 1", "group": "resource", "lat": 27.931213777549964, "lon": 56.68110962971617, "alt_km": 750.1453649265977, "timestamp": "2025-12-15T07:02:37.271492+00:00", "meta": {"OBJECT_NAME": "KAZEOSAT 1", "OBJECT_ID": "2014-024A", "EPOCH": "2025-12-14T22:35:12.583968", "MEAN_MOTION": 14.42064325, "ECCENTRICITY": 0.00011414, "INCLINATION": 98.3431, "RA_OF_ASC_NODE": 60.7989, "ARG_OF_PERICENTER": 96.6148, "MEAN_ANOMALY": 263.5172, "EPHEMERIS_TYPE": 0, "CLASSIFICATION_TYPE": "U", "NORAD_CAT_ID": 39731, "ELEMENT_SET_NO": 999, "REV_AT_EPOCH": 61200, "BSTAR": 0.00010464472, "MEAN_MOTION_DOT": 3.01e-06, "MEAN_MOTION_DDOT": 0}, "tle": {"line1": "1 39731U 14024A   25348.94111787  .00000301  00000+0  10464-3 0  9995", "line2": "2 39731  98.3431  60.7989 0001141  96.6148 263.5172 14.42064325612009"}}, "geometry": {"type": "Point", "coordinates": [56.68110962971617, 27.931213777549964]}}, {"type": "Feature", "properties": {"norad_id": 39766, "name": "ALOS-2", "group": "resource", "lat": -73.79740739278996, "lon": -124.5320061792376, "alt_km": 639.2178564218566, "timestamp": "2025-12-15T07:02:37.271502+00:00", "meta": {"OBJECT_NAME": "ALOS-2", "OBJECT_ID": "2014-029A", "EPOCH": "2025-12-14T18:31:43.351392", "MEAN_MOTION": 14.79473192, "ECCENTRICITY": 0.00013917, "INCLINATION": 97.9223, "RA_OF_ASC_NODE": 83.589, "ARG_OF_PERICENTER": 96.369, "MEAN_ANOMALY": 263.768, "EPHEMERIS_TYPE": 0, "CLASSIFICATION_TYPE": "U", "NORAD_CAT_ID": 39766, "ELEMENT_SET_NO": 999, "REV_AT_EPOCH": 62431, "BSTAR": 0.00030802618, "MEAN_MOTION_DOT": 2.25e-05, "MEAN_MOTION_DDOT": 0}, "tle": {"line1": "1 39766U 14029A   25348.77202953  .00002250  00000+0  30803-3 0  9999", "line2": "2 39766  97.9223  83.5890 0001391  96.3690 263.7680 14.79473192624310"}}, "geometry": {"type": "Point", "coordinates": [-124.5320061792376, -73.79740739278996]}}, {"type": "Feature", "properties": {"norad_id": 40010, "name": "KAZEOSAT 2", "group": "resource", "lat": -37.94474212838037, "lon": 7.539414678343729, "alt_km": 614.347972631922, "timestamp": "2025-12-15T07:02:37.271512+00:00", "meta": {"OBJECT_NAME": "KAZEOSAT 2", "OBJECT_ID": "2014-033A", "EPOCH": "2025-12-14T21:58:44.957568", "MEAN_MOTION": 14.85171782, "ECCENTRICITY": 0.00078533, "INCLINATION": 97.5508, "RA_OF_ASC_NODE": 193.1179, "ARG_OF_PERICENTER": 199.1027, "MEAN_ANOMALY": 160.9895, "EPHEMERIS_TYPE": 0, "CLASSIFICATION_TYPE": "U", "NORAD_CAT_ID": 40010, "ELEMENT_SET_NO": 999, "REV_AT_EPOCH": 62160, "BSTAR": 0.00010301089, "MEAN_MOTION_DOT": 8.32e-06, "MEAN_MOTION_DDOT": 0}, "tle": {"line1": "1 40010U 14033A   25348.91579812  .00000832  00000+0  10301-3 0  9990", "line2": "2 40010  97.5508 193.1179 0007853 199.1027 160.9895 14.85171782621601"}}, "geometry": {"type": "Point", "coordinates": [7.539414678343729, -37.94474212838037]}}, {"type": "Feature", "properties": {"norad_id": 40011, "name": "HODOYOSHI-4", "group": "resource", "lat": -32.349178856479355, "lon": -177.1348431072869, "alt_km": 623.5206464528173, "timestamp": "2025-12-15T07:02:37.271523+00:00", "meta": {"OBJECT_NAME": "HODOYOSHI-4", "OBJECT_ID": "2014-033B", "EPOCH": "2025-12-14T23:07:06.907296", "MEAN_MOTION": 14.87497059, "ECCENTRICITY": 0.00232773, "INCLINATION": 97.5417, "RA_OF_ASC_NODE": 177.7379, "ARG_OF_PERICENTER": 192.8079, "MEAN_ANOMALY": 167.255, "EPHEMERIS_TYPE": 0, "CLASSIFICATION_TYPE": "U", "NORAD_CAT_ID": 40011, "ELEMENT_SET_NO": 999, "REV_AT_EPOCH": 62141, "BSTAR": 0.00038039916, "MEAN_MOTION_DOT": 3.413e-05, "MEAN_MOTION_DDOT": 0}, "tle": {"line1": "1 40011U 14033B   25348.96327439  .00003413  00000+0  38040-3 0  9990", "line2": "2 40011  97.5417 177.7379 0023277 192.8079 167.2550 14.87497059621413"}}, "geometry": {"type": "Point", "coordinates": [-177.1348431072869, -32.349178856479355]}}, {"type": "Feature", "properties": {"norad_id": 40013, "name": "DEIMOS-2", "group": "resource", "lat": 4.932120192689215, "lon": 45.669961091435745, "alt_km": 590.7561885708674, "timestamp": "2025-12-15T07:02:37.271533+00:00", "meta": {"OBJECT_NAME": "DEIMOS-2", "OBJECT_ID": "2014-033D", "EPOCH": "2025-12-14T22:13:12.856800", "MEAN_MOTION": 14.92982202, "ECCENTRICITY": 9.308e-05, "INCLINATION": 97.6064, "RA_OF_ASC_NODE": 224.6538, "ARG_OF_PERICENTER": 110.2638, "MEAN_ANOMALY": 249.8682, "EPHEMERIS_TYPE": 0, "CLASSIFICATION_TYPE": "U", "NORAD_CAT_ID": 40013, "ELEMENT_SET_NO": 999, "REV_AT_EPOCH": 61022, "BSTAR": 0.00012380869, "MEAN_MOTION_DOT": 1.232e-05, "MEAN_MOTION_DDOT": 0}, "tle": {"line1": "1 40013U 14033D   25348.92584325  .00001232  00000+0  12381-3 0  9994", "line2": "2 40013  97.6064 224.6538 0000930 110.2638 249.8682 14.92982202610224"}}, "geometry": {"type": "Point", "coordinates": [45.669961091435745, 4.932120192689215]}}, {"type": "Feature", "properties": {"norad_id": 40015, "name": "HODOYOSHI-3", "group": "resource", "lat": -47.535759532812115, "lon": -33.39360570988321, "alt_km": 599.0967568755441, "timestamp": "2025-12-15T07:02:37.271543+00:00", "meta": {"OBJECT_NAME": "HODOYOSHI-3", "OBJECT_ID": "2014-033F", "EPOCH": "2025-12-14T21:55:52.740768", "MEAN_MOTION": 14.84814917, "ECCENTRICITY": 0.00319416, "INCLINATION": 97.6196, "RA_OF_ASC_NODE": 154.6544, "ARG_OF_PERICENTER": 240.4959, "MEAN_ANOMALY": 119.307, "EPHEMERIS_TYPE": 0, "CLASSIFICATION_TYPE": "U", "NORAD_CAT_ID": 40015, "ELEMENT_SET_NO": 999, "REV_AT_EPOCH": 62027, "BSTAR": 0.00016088812, "MEAN_MOTION_DOT": 1.325e-05, "MEAN_MOTION_DDOT": 0}, "tle": {"line1": "1 40015U 14033F   25348.91380487  .00001325  00000+0  16089-3 0  9990", "line2": "2 40015  97.6196 154.6544 0031941 240.4959 119.3070 14.84814917620275"}}, "geometry": {"type": "Point", "coordinates": [-33.39360570988321, -47.535759532812115]}}, {"type": "Feature", "properties": {"norad_id": 40053, "name": "SPOT 7", "group": "resource", "lat": 81.90339653438626, "lon": -37.91973684201808, "alt_km": 682.2130970557528, "timestamp": "2025-12-15T07:02:37.271553+00:00", "meta": {"OBJECT_NAME": "SPOT 7", "OBJECT_ID": "2014-034A", "EPOCH": "2025-12-14T22:24:50.051232", "MEAN_MOTION": 14.60738036, "ECCENTRICITY": 0.00015748, "INCLINATION": 98.0906, "RA_OF_ASC_NODE": 50.9588, "ARG_OF_PERICENTER": 87.3945, "MEAN_ANOMALY": 272.7436, "EPHEMERIS_TYPE": 0, "CLASSIFICATION_TYPE": "U", "NORAD_CAT_ID": 40053, "ELEMENT_SET_NO": 999, "REV_AT_EPOCH": 61023, "BSTAR": 0.00017571236, "MEAN_MOTION_DOT": 8.11e-06, "MEAN_MOTION_DDOT": 0}, "tle": {"line1": "1 40053U 14034A   25348.93391263  .00000811  00000+0  17571-3 0  9995", "line2": "2 40053  98.0906  50.9588 0001574  87.3945 272.7436 14.60738036610235"}}, "geometry": {"type": "Point", "coordinates": [-37.91973684201808, 81.90339653438626]}}, {"type": "Feature", "properties": {"norad_id": 40072, "name": "SKYSAT-B", "group": "resource", "lat": -81.59341654005271, "lon": 28.779859867836933, "alt_km": 616.2429861631517, "timestamp": "2025-12-15T07:02:37.271563+00:00", "meta": {"OBJECT_NAME": "SKYSAT-B", "OBJECT_ID": "2014-037D", "EPOCH": "2025-12-14T20:08:59.406144", "MEAN_MOTION": 14.87335626, "ECCENTRICITY": 0.00063174, "INCLINATION": 98.3608, "RA_OF_ASC_NODE": 292.6565, "ARG_OF_PERICENTER": 143.8455, "MEAN_ANOMALY": 216.3188, "EPHEMERIS_TYPE": 0, "CLASSIFICATION_TYPE": "U", "NORAD_CAT_ID": 40072, "ELEMENT_SET_NO": 999, "REV_AT_EPOCH": 61855, "BSTAR": 0.00016130482, "MEAN_MOTION_DOT": 1.396e-05, "MEAN_MOTION_DDOT": 0}, "tle": {"line1": "1 40072U 14037D   25348.83957646  .00001396  00000+0  16130-3 0  9990", "line2": "2 40072  98.3608 292.6565 0006317 143.8455 216.3188 14.87335626618550"}}, "geometry": {"type": "Point", "coordinates": [28.779859867836933, -81.59341654005271]}}]}